COMMENT,ORIGINATOR,NORAD_CAT_ID,OBJECT_NAME,OBJECT_TYPE,CLASSIFICATION_TYPE,INTLDES,EPOCH,EPOCH_MICROSECONDS,MEAN_MOTION,ECCENTRICITY,INCLINATION,RA_OF_ASC_NODE,ARG_OF_PERICENTER,MEAN_ANOMALY,EPHEMERIS_TYPE,ELEMENT_SET_NO,REV_AT_EPOCH,BSTAR,MEAN_MOTION_DOT,MEAN_MOTION_DDOT,FILE,TLE_LINE0,TLE_LINE1,TLE_LINE2,OBJECT_ID,OBJECT_NUMBER,SEMIMAJOR_AXIS,PERIOD,APOGEE,PERIGEE,DECAYED
GENERATED VIA SPACETRACK.ORG API,18 SPCS,4084,SL-8 DEB,DEBRIS,U,69070C,2024-01-21 18:47:34,141920,14.46478279,0.0023058,74.0682,151.653,268.4908,91.361,0,999,86887,0.00011893,4.02e-06,0,4168132,0 SL-8 DEB,1 04084U 69070C   24021.78303405  .00000402  00000-0  11893-3 0  9998,2 04084  74.0682 151.6530 0023058 268.4908  91.3610 14.46478279868870,1969-070C,4084,7115.311,99.552,753.583,720.77,0
GENERATED VIA SPACETRACK.ORG API,18 SPCS,4084,SL-8 DEB,DEBRIS,U,69070C,2024-01-22 19:41:27,534048,14.46479048,0.0023058,74.0683,149.7197,266.4361,93.416,0,999,86902,0.00011261,3.79e-06,0,4168971,0 SL-8 DEB,1 04084U 69070C   24022.82045757  .00000379  00000-0  11261-3 0  9999,2 04084  74.0683 149.7197 0023058 266.4361  93.4160 14.46479048869025,1969-070C,4084,7115.309,99.552,753.58,720.767,0
GENERATED VIA SPACETRACK.ORG API,18 SPCS,4084,SL-8 DEB,DEBRIS,U,69070C,2024-01-23 15:36:34,218720,14.46479856,0.0023044,74.0684,148.1732,264.8586,94.9943,0,999,86912,0.00011833,4e-06,0,4169607,0 SL-8 DEB,1  4084U 69070C   24023.65039605  .00000400  00000-0  11833-3 0  9996,2  4084  74.0684 148.1732 0023044 264.8586  94.9943 14.46479856869123,1969-070C,4084,7115.306,99.552,753.568,720.774,0
GENERATED VIA SPACETRACK.ORG API,18 SPCS,4084,SL-8 DEB,DEBRIS,U,69070C,2024-01-23 18:55:45,325056,14.46479692,0.0023049,74.0684,147.9155,264.5975,95.2555,0,999,86916,0.00010261,3.43e-06,0,4169695,0 SL-8 DEB,1 04084U 69070C   24023.78871904  .00000343  00000-0  10261-3 0  9996,2 04084  74.0684 147.9155 0023049 264.5975  95.2555 14.46479692869168,1969-070C,4084,7115.307,99.552,753.572,720.771,0
GENERATED VIA SPACETRACK.ORG API,18 SPCS,4084,SL-8 DEB,DEBRIS,U,69070C,2024-01-24 14:50:51,975168,14.46480717,0.0023048,74.0684,146.3691,262.9346,96.9191,0,999,86928,0.00012275,4.16e-06,0,4170326,0 SL-8 DEB,1 04084U 69070C   24024.61865712  .00000416  00000-0  12275-3 0  9997,2 04084  74.0684 146.3691 0023048 262.9346  96.9191 14.46480717869286,1969-070C,4084,7115.303,99.552,753.568,720.769,0
GENERATED VIA SPACETRACK.ORG API,18 SPCS,4084,SL-8 DEB,DEBRIS,U,69070C,2024-01-24 18:10:03,79776,14.46480832,0.002305,74.0684,146.1113,262.6668,97.187,0,999,86930,0.00012282,4.16e-06,0,4170567,0 SL-8 DEB,1 04084U 69070C   24024.75698009  .00000416  00000-0  12282-3 0  9993,2 04084  74.0684 146.1113 0023050 262.6668  97.1870 14.46480832869308,1969-070C,4084,7115.303,99.552,753.569,720.767,0
GENERATED VIA SPACETRACK.ORG API,18 SPCS,4084,SL-8 DEB,DEBRIS,U,69070C,2024-01-25 12:25:34,156416,14.46481248,0.0023036,74.0684,144.6937,261.1279,98.7271,0,999,86941,0.00011498,3.88e-06,0,4171093,0 SL-8 DEB,1 04084U 69070C   24025.51775644  .00000388  00000-0  11498-3 0  9995,2 04084  74.0684 144.6937 0023036 261.1279  98.7271 14.46481248869417,1969-070C,4084,7115.301,99.552,753.557,720.776,0
GENERATED VIA SPACETRACK.ORG API,18 SPCS,4084,SL-8 DEB,DEBRIS,U,69070C,2024-01-25 19:03:56,350080,14.46481388,0.0023045,74.0684,144.1782,260.6049,99.2504,0,999,86943,0.00010999,3.7e-06,0,4171157,0 SL-8 DEB,1  4084U 69070C   24025.79440220  .00000370  00000-0  10999-3 0  9990,2  4084  74.0684 144.1782 0023045 260.6049  99.2504 14.46481388869431,1969-070C,4084,7115.301,99.552,753.563,720.769,0
GENERATED VIA SPACETRACK.ORG API,18 SPCS,4084,SL-8 DEB,DEBRIS,U,69070C,2024-01-25 19:03:56,350080,14.46481388,0.0023045,74.0684,144.1782,260.6049,99.2504,0,999,86945,0.00010999,3.7e-06,0,4171361,0 SL-8 DEB,1 04084U 69070C   24025.79440220  .00000370  00000-0  10999-3 0  9990,2 04084  74.0684 144.1782 0023045 260.6049  99.2504 14.46481388869453,1969-070C,4084,7115.301,99.552,753.563,720.769,0
GENERATED VIA SPACETRACK.ORG API,18 SPCS,4084,SL-8 DEB,DEBRIS,U,69070C,2024-01-26 11:39:51,851520,14.46481897,0.002304,74.0685,142.8895,259.2242,100.6323,0,999,86955,0.00011121,3.74e-06,0,4171858,0 SL-8 DEB,1 04084U 69070C   24026.48601680  .00000374  00000-0  11121-3 0  9998,2 04084  74.0685 142.8895 0023040 259.2242 100.6323 14.46481897869550,1969-070C,4084,7115.299,99.552,753.558,720.771,0
GENERATED VIA SPACETRACK.ORG API,18 SPCS,4084,SL-8 DEB,DEBRIS,U,69070C,2024-01-27 14:13:20,618400,14.46482492,0.0023044,74.0684,140.8274,256.9939,102.8647,0,999,86971,0.00010535,3.53e-06,0,4172745,0 SL-8 DEB,1 04084U 69070C   24027.59259975  .00000353  00000-0  10535-3 0  9992,2 04084  74.0684 140.8274 0023044 256.9939 102.8647 14.46482492869712,1969-070C,4084,7115.297,99.552,753.559,720.766,0
GENERATED VIA SPACETRACK.ORG API,18 SPCS,4084,SL-8 DEB,DEBRIS,U,69070C,2024-01-27 17:32:31,706592,14.46482611,0.0023037,74.0684,140.5695,256.6746,103.1844,0,999,86973,0.00010599,3.55e-06,0,4172992,0 SL-8 DEB,1 04084U 69070C   24027.73092253  .00000355  00000-0  10599-3 0  9994,2 04084  74.0684 140.5695 0023037 256.6746 103.1844 14.46482611869739,1969-070C,4084,7115.297,99.552,753.553,720.77,0
GENERATED VIA SPACETRACK.ORG API,18 SPCS,4084,SL-8 DEB,DEBRIS,U,69070C,2024-01-28 10:08:27,161376,14.46482859,0.0023025,74.0684,139.2807,255.3492,104.5114,0,999,86981,9.3573e-05,3.11e-06,0,4173399,0 SL-8 DEB,1  4084U 69070C   24028.42253659  .00000311  00000-0  93573-4 0  9996,2  4084  74.0684 139.2807 0023025 255.3492 104.5114 14.46482859869818,1969-070C,4084,7115.296,99.552,753.544,720.778,0
GENERATED VIA SPACETRACK.ORG API,18 SPCS,4084,SL-8 DEB,DEBRIS,U,69070C,2024-01-28 10:08:27,161376,14.46482859,0.0023025,74.0684,139.2807,255.3492,104.5114,0,999,86983,9.3573e-05,3.11e-06,0,4173554,0 SL-8 DEB,1 04084U 69070C   24028.42253659  .00000311  00000-0  93573-4 0  9996,2 04084  74.0684 139.2807 0023025 255.3492 104.5114 14.46482859869830,1969-070C,4084,7115.296,99.552,753.544,720.778,0
GENERATED VIA SPACETRACK.ORG API,18 SPCS,4084,SL-8 DEB,DEBRIS,U,69070C,2024-01-28 18:26:24,879264,14.464831,0.0023026,74.0684,138.6363,254.6581,105.2033,0,999,86988,9.4527e-05,3.14e-06,0,4173840,0 SL-8 DEB,1 04084U 69070C   24028.76834351  .00000314  00000-0  94527-4 0  9990,2 04084  74.0684 138.6363 0023026 254.6581 105.2033 14.46483100869885,1969-070C,4084,7115.295,99.552,753.544,720.777,0
GENERATED VIA SPACETRACK.ORG API,18 SPCS,4084,SL-8 DEB,DEBRIS,U,69070C,2024-01-29 17:40:42,474144,14.46483704,0.0023008,74.0684,136.832,252.731,107.1331,0,999,87002,9.2415e-05,3.06e-06,0,4174567,0 SL-8 DEB,1 04084U 69070C   24029.73660271  .00000306  00000-0  92415-4 0  9991,2 04084  74.0684 136.8320 0023008 252.7310 107.1331 14.46483704870027,1969-070C,4084,7115.293,99.552,753.529,720.788,0
GENERATED VIA SPACETRACK.ORG API,18 SPCS,4084,SL-8 DEB,DEBRIS,U,69070C,2024-01-30 10:16:37,879680,14.46484094,0.0022998,74.0683,135.5432,251.275,108.5913,0,999,87010,8.9377e-05,2.96e-06,0,4175030,0 SL-8 DEB,1  4084U 69070C   24030.42821620  .00000296  00000-0  89377-4 0  9997,2  4084  74.0683 135.5432 0022998 251.2750 108.5913 14.46484094870108,1969-070C,4084,7115.292,99.552,753.521,720.793,0
GENERATED VIA SPACETRACK.ORG API,18 SPCS,4084,SL-8 DEB,DEBRIS,U,69070C,2024-01-30 13:35:48,962688,14.46484133,0.0023002,74.0683,135.2854,250.9885,108.8781,0,999,87014,8.8807e-05,2.93e-06,0,4175201,0 SL-8 DEB,1 04084U 69070C   24030.56653892  .00000293  00000-0  88807-4 0  9990,2 04084  74.0683 135.2854 0023002 250.9885 108.8781 14.46484133870149,1969-070C,4084,7115.292,99.552,753.524,720.79,0
GENERATED VIA SPACETRACK.ORG API,18 SPCS,4084,SL-8 DEB,DEBRIS,U,69070C,2024-01-30 16:55:00,41376,14.46484222,0.0022997,74.0683,135.0276,250.7148,109.1523,0,999,87016,8.8581e-05,2.93e-06,0,4175464,0 SL-8 DEB,1 04084U 69070C   24030.70486159  .00000293  00000-0  88581-4 0  9995,2 04084  74.0683 135.0276 0022997 250.7148 109.1523 14.46484222870166,1969-070C,4084,7115.292,99.552,753.52,720.794,0
GENERATED VIA SPACETRACK.ORG API,18 SPCS,4084,SL-8 DEB,DEBRIS,U,69070C,2024-01-31 09:30:55,433088,14.46484492,0.0022983,74.0683,133.7388,249.3114,110.558,0,999,87026,7.976e-05,2.61e-06,0,4176118,0 SL-8 DEB,1 04084U 69070C   24031.39647492  .00000261  00000-0  79760-4 0  9994,2 04084  74.0683 133.7388 0022983 249.3114 110.5580 14.46484492870266,1969-070C,4084,7115.291,99.552,753.509,720.803,0
GENERATED VIA SPACETRACK.ORG API,18 SPCS,4084,SL-8 DEB,DEBRIS,U,69070C,2024-01-31 16:09:17,583552,14.46484619,0.0022981,74.0683,133.2233,248.7152,111.1553,0,999,87030,7.8279e-05,2.55e-06,0,4176251,0 SL-8 DEB,1 04084U 69070C   24031.67312018  .00000255  00000-0  78279-4 0  9995,2 04084  74.0683 133.2233 0022981 248.7152 111.1553 14.46484619870306,1969-070C,4084,7115.29,99.552,753.507,720.804,0
GENERATED VIA SPACETRACK.ORG API,18 SPCS,4084,SL-8 DEB,DEBRIS,U,69070C,2024-02-01 08:45:12,958848,14.46484871,0.0022968,74.0683,131.9346,247.288,112.585,0,999,87040,6.9328e-05,2.23e-06,0,4176807,0 SL-8 DEB,1 04084U 69070C   24032.36473332  .00000223  00000-0  69328-4 0  9999,2 04084  74.0683 131.9346 0022968 247.2880 112.5850 14.46484871870409,1969-070C,4084,7115.29,99.552,753.497,720.812,0
GENERATED VIA SPACETRACK.ORG API,18 SPCS,4084,SL-8 DEB,DEBRIS,U,69070C,2024-02-02 09:39:06,1920,14.46485347,0.002295,74.0683,130.0013,245.2091,114.668,0,999,87053,6.4985e-05,2.07e-06,0,4177514,0 SL-8 DEB,1  4084U 69070C   24033.40215280  .00000207  00000-0  64985-4 0  9997,2  4084  74.0683 130.0013 0022950 245.2091 114.6680 14.46485347870530,1969-070C,4084,7115.288,99.552,753.483,720.823,0
GENERATED VIA SPACETRACK.ORG API,18 SPCS,4084,SL-8 DEB,DEBRIS,U,69070C,2024-02-02 14:37:52,603968,14.46485494,0.0022946,74.0683,129.6146,244.7737,115.1043,0,999,87058,6.7207e-05,2.15e-06,0,4177630,0 SL-8 DEB,1 04084U 69070C   24033.60963662  .00000215  00000-0  67207-4 0  9992,2 04084  74.0683 129.6146 0022946 244.7737 115.1043 14.46485494870584,1969-070C,4084,7115.287,99.552,753.479,720.826,0
